NORAD_CAT_ID,OBJECT_NAME,OBJECT_TYPE,EPOCH,MEAN_MOTION,ECCENTRICITY,INCLINATION,RA_OF_ASC_NODE,ARG_OF_PERICENTER,MEAN_ANOMALY,BSTAR,MEAN_MOTION_DOT,MEAN_MOTION_DDOT,TLE_LINE0,TLE_LINE1,TLE_LINE2,SEMIMAJOR_AXIS,PERIOD,APOGEE,PERIGEE,DECAYED
51716.0,STARLINK-3543,PAYLOAD,2022-03-17 14:00:01,15.70195,0.0001027,53.2175,20.9039,94.732,231.8389,-0.0063435,-0.00720177,0.0,0 STARLINK-3543,1 51716U 22016C   22076.58334491 -.00720177  00000-0 -63435-2 0  9994,2 51716  53.2175  20.9039 0001027  94.7320 231.8389 15.70195000  3705,6736.476,91.708,359.033,357.649,0.0
51716.0,STARLINK-3543,PAYLOAD,2022-03-17 22:00:00,15.69684544,0.0001023,53.2177,19.2635,88.7377,322.8369,-0.0064679,-0.0071888,0.0,0 STARLINK-3543,1 51716U 22016C   22076.91667824 -.00718880  00000-0 -64679-2 0  9999,2 51716  53.2177  19.2635 0001023  88.7377 322.8369 15.69684544  3692,6737.937,91.738,360.491,359.112,0.0
51716.0,STARLINK-3543,PAYLOAD,2022-03-18 08:00:01,15.68992711,0.0001101,53.2176,17.2165,86.5078,160.4835,-0.0058802,-0.00641051,0.0,0 STARLINK-3543,1 51716U 22016C   22077.33334491 -.00641051  00000-0 -58802-2 0  9993,2 51716  53.2176  17.2165 0001101  86.5078 160.4835 15.68992711  5118,6739.917,91.779,362.524,361.04,0.0
51716.0,STARLINK-3543,PAYLOAD,2022-03-18 14:00:01,15.6866451,0.000116,53.2176,15.9863,86.3526,133.3906,-0.0067453,-0.00718618,0.0,0 STARLINK-3543,1 51716U 22016C   22077.58334491 -.00718618  00000-0 -67453-2 0  9996,2 51716  53.2176  15.9863 0001160  86.3526 133.3906 15.68664510  3714,6740.857,91.798,363.504,361.94,0.0
51716.0,STARLINK-3543,PAYLOAD,2022-03-18 22:00:00,15.68154901,0.0001106,53.2177,14.35,91.4837,211.4241,-0.0068921999999999,-0.00718929,0.0,0 STARLINK-3543,1 51716U 22016C   22077.91667824 -.00718929  00000-0 -68922-2 0  9999,2 51716  53.2177  14.3500 0001106  91.4837 211.4241 15.68154901  5202,6742.318,91.828,364.92800000000005,363.437,0.0
51716.0,STARLINK-3543,PAYLOAD,2022-03-19 14:00:01,15.67132338,0.0001045,53.2174,11.0804,86.0138,21.3869,-0.0071379999999999,-0.00714354,0.0,0 STARLINK-3543,1 51716U 22016C   22078.58334491 -.00714354  00000-0 -71380-2 0  9994,2 51716  53.2174  11.0804 0001045  86.0138  21.3869 15.67132338  3689,6745.25,91.888,367.82,366.41,0.0
51716.0,STARLINK-3543,PAYLOAD,2022-03-19 22:00:01,15.66623206,0.0001236,53.2176,9.4476,76.8388,111.9536,-0.0073033999999999,-0.00715804,0.0,0 STARLINK-3543,1 51716U 22016C   22078.91668981 -.00715804  00000-0 -73034-2 0  9994,2 51716  53.2176   9.4476 0001236  76.8388 111.9536 15.66623206  5365,6746.7109999999975,91.917,369.41,367.74300000000005,0.0
51716.0,STARLINK-3543,PAYLOAD,2022-03-20 14:00:01,15.65602935,9.8e-05,53.2176,6.1853,86.6204,262.9224,-0.0076048999999999,-0.00715182,0.0,0 STARLINK-3543,1 51716U 22016C   22079.58334491 -.00715182  00000-0 -76049-2 0  9992,2 51716  53.2176   6.1853 0000980  86.6204 262.9224 15.65602935  3688,6749.642,91.977,372.169,370.846,0.0
51716.0,STARLINK-3543,PAYLOAD,2022-03-20 20:00:01,15.65222014,0.0001095,53.2178,4.9633,93.2473,225.9679,-0.0077399,-0.0071669,0.0,0 STARLINK-3543,1 51716U 22016C   22079.83334491 -.00716690  00000-0 -77399-2 0  9994,2 51716  53.2178   4.9633 0001095  93.2473 225.9679 15.65222014  5504,6750.736999999999,92.0,373.342,371.86300000000006,0.0
51716.0,STARLINK-3543,PAYLOAD,2022-03-20 22:00:01,15.65095049,0.000104,53.2177,4.5568,80.2355,348.8593,-0.0078012,-0.00718517,0.0,0 STARLINK-3543,1 51716U 22016C   22079.91668981 -.00718517  00000-0 -78012-2 0  9990,2 51716  53.2177   4.5568 0001040  80.2355 348.8593 15.65095049  3707,6751.102,92.007,373.67,372.265,0.0
51716.0,STARLINK-3543,PAYLOAD,2022-03-21 14:00:01,15.64072658,0.000118,53.2175,1.3014,91.6271,134.542,-0.0080683,-0.00713802,0.0,0 STARLINK-3543,1 51716U 22016C   22080.58334491 -.00713802  00000-0 -80683-2 0  9990,2 51716  53.2175   1.3014 0001180  91.6271 134.5420 15.64072658  3691,6754.044,92.067,376.706,375.112,0.0
51716.0,STARLINK-3543,PAYLOAD,2022-03-21 22:00:00,15.63564304,0.0001137,53.2176,359.6768,82.2,221.618,-0.0082689,-0.00716661,0.0,0 STARLINK-3543,1 51716U 22016C   22080.91667824 -.00716661  00000-0 -82689-2 0  9990,2 51716  53.2176 359.6768 0001137  82.2000 221.6180 15.63564304  5679,6755.5080000000025,92.097,378.141,376.605,0.0
51716.0,STARLINK-3543,PAYLOAD,2022-03-22 14:00:01,15.62541974,0.0001034,53.2174,356.42900000000014,84.6376,12.6433,-0.0085547,-0.00712462,0.0,0 STARLINK-3543,1 51716U 22016C   22081.58334491 -.00712462  00000-0 -85547-2 0  9996,2 51716  53.2174 356.4290 0001034  84.6376  12.6433 15.62541974  3708,6758.454000000002,92.158,381.018,379.62,0.0
51716.0,STARLINK-3543,PAYLOAD,2022-03-22 20:00:01,15.62161967,0.0001078,53.2177,355.2128,79.6957,344.5003,-0.0087348999999999,-0.00716362,0.0,0 STARLINK-3543,1 51716U 22016C   22081.83334491 -.00716362  00000-0 -87349-2 0  9999,2 51716  53.2177 355.2128 0001078  79.6957 344.5003 15.62161967  5819,6759.55,92.18,382.144,380.687,0.0
51716.0,STARLINK-3543,PAYLOAD,2022-03-22 22:00:01,15.62032828,0.0001244,53.2176,354.80800000000005,76.8618,96.2951,-0.0087444,-0.00713788,0.0,0 STARLINK-3543,1 51716U 22016C   22081.91668981 -.00713788  00000-0 -87444-2 0  9997,2 51716  53.2176 354.8080 0001244  76.8618  96.2951 15.62032828  3700,6759.9230000000025,92.188,382.629,380.947,0.0
51716.0,STARLINK-3543,PAYLOAD,2022-03-23 14:00:01,15.61011785,0.0001057,53.2175,351.5673,94.3313,228.5463,-0.0090731,-0.0071186,0.0,0 STARLINK-3543,1 51716U 22016C   22082.58334491 -.00711860  00000-0 -90731-2 0  9999,2 51716  53.2175 351.5673 0001057  94.3313 228.5463 15.61011785  3694,6762.87,92.248,385.45,384.02,0.0
51716.0,STARLINK-3543,PAYLOAD,2022-03-23 22:00:00,15.60504643,0.000105,53.2176,349.9505,80.2665,316.5825,-0.0093178,-0.00716428,0.0,0 STARLINK-3543,1 51716U 22016C   22082.91667824 -.00716428  00000-0 -93178-2 0  9998,2 51716  53.2176 349.9505 0001050  80.2665 316.5825 15.60504643  5980,6764.335,92.278,386.911,385.49,0.0
51716.0,STARLINK-3543,PAYLOAD,2022-03-24 14:00:01,15.59482745,0.0001196,53.2172,346.7169,84.0511,98.9073,-0.009636,-0.00712682,0.0,0 STARLINK-3543,1 51716U 22016C   22083.58334491 -.00712682  00000-0 -96360-2 0  9997,2 51716  53.2172 346.7169 0001196  84.0511  98.9073 15.59482745  3687,6767.29,92.338,389.964,388.346,0.0
51716.0,STARLINK-3543,PAYLOAD,2022-03-24 22:00:00,15.58972436,0.0001252999999999,53.2174,345.1039,77.2228,177.8699,-0.0098186,-0.00712202,0.0,0 STARLINK-3543,1 51716U 22016C   22083.91667824 -.00712202  00000-0 -98186-2 0  9999,2 51716  53.2174 345.1039 0001253  77.2228 177.8699 15.58972436  3705,6768.767,92.369,391.48,389.784,0.0
51716.0,STARLINK-3543,PAYLOAD,2022-03-25 00:00:02,15.58847523,0.0001116,53.2173,344.7009,74.1793,288.9151,-0.0099355,-0.00716811,0.0,0 STARLINK-3543,1 51716U 22016C   22084.00002315 -.00716811  00000-0 -99355-2 0  9997,2 51716  53.2173 344.7009 0001116  74.1793 288.9151 15.58847523  6154,6769.128000000002,92.376,391.749,390.23800000000006,0.0
51716.0,STARLINK-3543,PAYLOAD,2022-03-25 14:00:01,15.579522,9.940000000000004e-05,53.2174,341.8776,92.6575,304.868,-0.010205,-0.00712031,0.0,0 STARLINK-3543,1 51716U 22016C   22084.58334491 -.00712031  00000-0 -10205-1 0  9999,2 51716  53.2174 341.8776 0000994  92.6575 304.8680 15.57952200  3699,6771.722,92.429,394.26,392.913,0.0
51716.0,STARLINK-3543,PAYLOAD,2022-03-25 22:00:01,15.5744361,0.0001133,53.2175,340.2684,81.6849,26.2002,-0.010435,-0.00714061,0.0,0 STARLINK-3543,1 51716U 22016C   22084.91668981 -.00714061  00000-0 -10435-1 0  9990,2 51716  53.2175 340.2684 0001133  81.6849  26.2002 15.57443610  3748,6773.196,92.459,395.828,394.293,0.0
51716.0,STARLINK-3543,PAYLOAD,2022-03-26 06:00:00,15.56934826,0.0001197,53.2172,338.6593,87.288,90.2153,-0.010665,-0.00715811,0.0,0 STARLINK-3543,1 51716U 22016C   22085.25001157 -.00715811  00000-0 -10665-1 0  9993,2 51716  53.2172 338.6593 0001197  87.2880  90.2153 15.56934826  6353,6774.670999999999,92.489,397.347,395.725,0.0
51716.0,STARLINK-3543,PAYLOAD,2022-03-26 14:00:01,15.56422985,0.0001213,53.2173,337.0492,89.8142,156.7617,-0.010817,-0.00712515,0.0,0 STARLINK-3543,1 51716U 22016C   22085.58334491 -.00712515  00000-0 -10817-1 0  9996,2 51716  53.2173 337.0492 0001213  89.8142 156.7617 15.56422985  3687,6776.156,92.52,398.843,397.199,0.0
51716.0,STARLINK-3543,PAYLOAD,2022-03-26 22:00:00,15.55913233,0.0001177,53.2175,335.444,73.7958,241.2372,-0.011027,-0.00712634,0.0,0 STARLINK-3543,1 51716U 22016C   22085.91667824 -.00712634  00000-0 -11027-1 0  9998,2 51716  53.2175 335.4440 0001177  73.7958 241.2372 15.55913233  3701,6777.636,92.55,400.299,398.704,0.0
51716.0,STARLINK-3543,PAYLOAD,2022-03-27 14:00:01,15.54893739,0.0001081,53.2172,332.2322,81.0259,9.086,-0.011478,-0.00714083,0.0,0 STARLINK-3543,1 51716U 22016C   22086.58334491 -.00714083  00000-0 -11478-1 0  9993,2 51716  53.2172 332.2322 0001081  81.0259   9.0860 15.54893739  6557,6780.599,92.611,403.197,401.731,0.0
51716.0,STARLINK-3543,PAYLOAD,2022-03-27 22:00:01,15.54382818,0.0001313,53.2172,330.6306,68.6489,88.1468,-0.01166,-0.00712083,0.0,0 STARLINK-3543,1 51716U 22016C   22086.91668981 -.00712083  00000-0 -11660-1 0  9995,2 51716  53.2172 330.6306 0001313  68.6489  88.1468 15.54382818  3702,6782.084,92.641,404.84,403.059,0.0
51716.0,STARLINK-3543,PAYLOAD,2022-03-28 14:00:01,15.53362386,0.0001186,53.2174,327.426,91.533,196.6651,-0.012086,-0.00711048,0.0,0 STARLINK-3543,1 51716U 22016C   22087.58335648 -.00711048  00000-0 -12086-1 0  9993,2 51716  53.2174 327.4260 0001186  91.5330 196.6651 15.53362386  3701,6785.054,92.702,407.724,406.114,0.0
51716.0,STARLINK-3543,PAYLOAD,2022-03-28 22:00:00,15.52854202,0.0001117,53.2176,325.8284,76.9528,275.9599,-0.012359,-0.00713517,0.0,0 STARLINK-3543,1 51716U 22016C   22087.91667824 -.00713517  00000-0 -12359-1 0  9990,2 51716  53.2176 325.8284 0001117  76.9528 275.9599 15.52854202  6764,6786.534000000002,92.732,409.157,407.641,0.0
